OBJECT_NAME,OBJECT_ID,EPOCH,MEAN_MOTION,ECCENTRICITY,INCLINATION,RA_OF_ASC_NODE,ARG_OF_PERICENTER,MEAN_ANOMALY,EPHEMERIS_TYPE,CLASSIFICATION_TYPE,NORAD_CAT_ID,ELEMENT_SET_NO,REV_AT_EPOCH,BSTAR,MEAN_MOTION_DOT,MEAN_MOTION_DDOT
STARLINK-36488,2026-002B,2026-05-13T05:07:01.144416,15.27589567,.0001764,43.0003,321.1620,272.5565,87.5084,0,U,67306,999,2094,.34056E-3,.9124E-4,0
STARLINK-36481,2026-002C,2026-05-13T12:37:26.995296,15.27587208,.0001873,43.0018,319.2061,266.1752,93.8885,0,U,67307,999,2099,.41223517E-3,.11101E-3,0
STARLINK-36449,2026-002D,2026-05-13T14:00:30.257856,15.27587781,.00014656,43.0013,318.7760,268.9549,91.1135,0,U,67308,999,2106,.44738551E-3,.12072E-3,0
STARLINK-36482,2026-002E,2026-05-12T22:13:23.679264,15.27582966,.0001331,43.0033,322.4436,269.5178,90.5521,0,U,67309,999,2090,.78096E-3,.21292E-3,0
STARLINK-36491,2026-002F,2026-05-13T05:01:28.056000,15.27592411,.0001682,43.0009,321.1330,274.3676,85.6984,0,U,67310,999,2094,.56225E-3,.15248E-3,0
STARLINK-36495,2026-002G,2026-05-13T05:49:21.641376,15.27583008,.00027706,43.0029,320.5191,269.8530,90.2004,0,U,67311,999,2111,.33054118E-3,.8846E-4,0
STARLINK-36485,2026-002H,2026-05-13T11:45:38.386368,15.27587239,.00010159,43.0009,318.9332,280.0078,80.0659,0,U,67312,999,2099,.34541111E-3,.9257E-4,0
STARLINK-36445,2026-002J,2026-05-12T21:21:47.361600,15.27584984,.0001223,43.0049,323.0365,271.9427,88.1285,0,U,67313,999,2105,.38719E-3,.10409E-3,0
STARLINK-36476,2026-002K,2026-05-13T14:06:03.686688,15.27581428,.00012865,43.0012,318.8025,244.0042,116.0678,0,U,67314,999,2099,.25347578E-3,.672E-4,0
STARLINK-36463,2026-002L,2026-05-13T05:45:41.645376,15.27585294,.00025739,43.0034,320.4972,271.2492,88.8065,0,U,67315,999,2101,.483989E-3,.13082E-3,0
STARLINK-36461,2026-002M,2026-05-13T11:56:44.578752,15.27589392,.00008796,42.9986,318.9877,257.4580,102.6173,0,U,67316,999,2115,.48492785E-3,.1311E-3,0
STARLINK-36450,2026-002N,2026-05-13T20:55:59.667168,15.27584195,.00005197,43.0076,317.5095,213.2725,146.8094,0,U,67317,999,2120,.55941846E-3,.15165E-3,0
STARLINK-36498,2026-002P,2026-05-13T14:13:27.758496,15.27583602,.00016203,43.0003,318.8431,264.1100,95.9567,0,U,67318,999,2106,.36322903E-3,.9748E-4,0
STARLINK-36470,2026-002Q,2026-05-12T19:29:07.745280,15.27590022,.00014932,43.0011,323.3070,270.7789,89.2892,0,U,67319,999,2094,.30459274E-3,.8131E-4,0
STARLINK-36500,2026-002R,2026-05-12T19:55:02.093376,15.27589567,.00011626,43.0011,323.4414,278.4313,81.6407,0,U,67320,999,2094,.44915857E-3,.12122E-3,0
STARLINK-36462,2026-002S,2026-05-14T08:00:01.000224,15.27580910,.00018364,43.0017,314.7991,270.9894,150.2626,0,U,67321,999,593,.10566616E-2,.2893E-3,0
STARLINK-36434,2026-002T,2026-05-13T05:08:52.075104,15.27594038,.0001881,43.0007,321.1701,273.6738,86.3898,0,U,67322,999,2094,.46741E-3,.12628E-3,0
STARLINK-36497,2026-002U,2026-05-13T14:02:21.584256,15.27583929,.0001676,43.0020,318.7814,274.2706,85.7954,0,U,67323,999,2106,.56903118E-3,.15431E-3,0
STARLINK-36471,2026-002V,2026-05-14T05:23:33.187488,15.27573428,.00016959,43.0024,314.9866,273.2930,86.7727,0,U,67324,999,2110,.26725565E-4,.473E-5,0
STARLINK-36473,2026-002W,2026-05-14T05:29:06.865152,15.27587288,.00020608,43.0023,315.0166,275.3672,84.6945,0,U,67325,999,2126,.51517109E-3,.13944E-3,0
STARLINK-36430,2026-002X,2026-05-12T20:00:22.303872,15.27602656,.00018358,43.0014,322.5979,282.7974,77.2672,0,U,67326,999,2105,.70679359E-3,.19252E-3,0
STARLINK-36501,2026-002Y,2026-05-13T22:50:17.223936,15.27584840,.00009697,43.0036,316.3736,279.1433,80.9309,0,U,67327,999,2106,.34814151E-3,.9332E-4,0
STARLINK-36489,2026-002Z,2026-05-13T12:46:42.093696,15.27598769,.00011055,42.9993,319.2536,269.6904,90.3821,0,U,67328,999,2115,.22021047E-3,.5806E-4,0
STARLINK-36496,2026-002AA,2026-05-12T22:17:05.087040,15.27599702,.0002021,43.0023,322.4540,265.1716,94.8904,0,U,67329,999,2088,.57025E-3,.15472E-3,0
STARLINK-36483,2026-002AB,2026-05-13T12:55:56.957952,15.27589497,.00011119,42.9989,319.3005,265.9559,94.1165,0,U,67330,999,2115,.29593373E-3,.7893E-4,0
STARLINK-36494,2026-002AC,2026-05-13T14:04:13.364256,15.27574638,.00019533,43.0000,318.7878,257.9680,102.0953,0,U,67331,999,2116,.41955671E-3,.11299E-3,0
STARLINK-36492,2026-002AD,2026-05-13T05:16:15.654432,15.27556087,.0001789,43.0012,321.2054,286.6683,73.3972,0,U,67332,999,2110,.46566E-3,.12564E-3,0
STARLINK-36427,2026-002AE,2026-05-13T12:33:44.751168,15.27592098,.00015114,43.0000,319.1687,267.5993,92.4686,0,U,67333,999,2105,.55095931E-3,.14935E-3,0
STARLINK-35343,2026-003A,2026-05-14T06:34:46.985952,15.27585568,.00010196,43.0096,216.7332,282.1335,77.9402,0,U,67334,999,1885,.30902285E-3,.8252E-4,0
STARLINK-36486,2026-003B,2026-05-14T06:03:19.386144,15.27585750,.00007501,42.9994,216.5633,265.8485,94.2281,0,U,67335,999,1885,.40342348E-3,.10858E-3,0
