STARLINK-35343
1 67334U 26003A   26134.27415493  .00008252  00000+0  30902-3 0  9998
2 67334  43.0096 216.7332 0001019 282.1335  77.9402 15.27585568 18859
STARLINK-36427
1 67333U 26002AE  26133.52343462  .00014935  00000+0  55096-3 0  9995
2 67333  43.0000 319.1687 0001511 267.5993  92.4686 15.27592098 21056
STARLINK-36430
1 67326U 26002X   26132.83359148  .00019252  00000+0  70679-3 0  9999
2 67326  43.0014 322.5979 0001835 282.7974  77.2672 15.27602656 21050
STARLINK-36434
1 67322U 26002T   26133.21449161  .00012628  00000+0  46741-3 0  9996
2 67322  43.0007 321.1701 0001881 273.6738  86.3898 15.27594038 20946
STARLINK-36445
1 67313U 26002J   26132.89013150  .00010409  00000+0  38719-3 0  9995
2 67313  43.0049 323.0365 0001223 271.9427  88.1285 15.27584984 21057
STARLINK-36449
1 67308U 26002D   26133.58368354  .00012072  00000+0  44739-3 0  9992
2 67308  43.0013 318.7760 0001465 268.9549  91.1135 15.27587781 21068
STARLINK-36450
1 67317U 26002N   26133.87221837  .00015165  00000+0  55942-3 0  9992
2 67317  43.0076 317.5095 0000520 213.2725 146.8094 15.27584195 21209
STARLINK-36461
1 67316U 26002M   26133.49773818  .00013110  00000+0  48493-3 0  9991
2 67316  42.9986 318.9877 0000879 257.4580 102.6173 15.27589392 21151
STARLINK-36462
1 67321U 26002S   26134.33334491  .00028930  00000+0  10567-2 0  9997
2 67321  43.0017 314.7991 0001836 270.9894 150.2626 15.27580910  5934
STARLINK-36463
1 67315U 26002L   26133.24006534  .00013082  00000+0  48399-3 0  9990
2 67315  43.0034 320.4972 0002574 271.2492  88.8065 15.27585294 21017
STARLINK-36470
1 67319U 26002Q   26132.81189520  .00008131  00000+0  30459-3 0  9990
2 67319  43.0011 323.3070 0001493 270.7789  89.2892 15.27590022 20948
STARLINK-36471
1 67324U 26002V   26134.22468967  .00000473  00000+0  26726-4 0  9992
2 67324  43.0024 314.9866 0001695 273.2930  86.7727 15.27573428 21106
STARLINK-36473
1 67325U 26002W   26134.22855168  .00013944  00000+0  51517-3 0  9998
2 67325  43.0023 315.0166 0002060 275.3672  84.6945 15.27587288 21269
STARLINK-36476
1 67314U 26002K   26133.58754267  .00006720  00000+0  25348-3 0  9999
2 67314  43.0012 318.8025 0001286 244.0042 116.0678 15.27581428 20995
STARLINK-36481
1 67307U 26002C   26133.52600689  .00011101  00000+0  41224-3 0  9993
2 67307  43.0018 319.2061 0001873 266.1752  93.8885 15.27587208 20997
STARLINK-36482
1 67309U 26002E   26132.92596851  .00021292  00000+0  78096-3 0  9992
2 67309  43.0033 322.4436 0001331 269.5178  90.5521 15.27582966 20904
STARLINK-36483
1 67330U 26002AB  26133.53885368  .00007893  00000+0  29593-3 0  9997
2 67330  42.9989 319.3005 0001111 265.9559  94.1165 15.27589497 21150
STARLINK-36485
1 67312U 26002H   26133.49002762  .00009257  00000+0  34541-3 0  9996
2 67312  43.0009 318.9332 0001016 280.0078  80.0659 15.27587239 20996
STARLINK-36486
1 67335U 26003B   26134.25230771  .00010858  00000+0  40342-3 0  9995
2 67335  42.9994 216.5633 0000750 265.8485  94.2281 15.27585750 18852
STARLINK-36488
1 67306U 26002B   26133.21320769  .00009124  00000+0  34056-3 0  9993
2 67306  43.0003 321.1620 0001764 272.5565  87.5084 15.27589567 20941
STARLINK-36489
1 67328U 26002Z   26133.53243164  .00005806  00000+0  22021-3 0  9997
2 67328  42.9993 319.2536 0001105 269.6904  90.3821 15.27598769 21157
STARLINK-36491
1 67310U 26002F   26133.20935250  .00015248  00000+0  56225-3 0  9990
2 67310  43.0009 321.1330 0001682 274.3676  85.6984 15.27592411 20942
STARLINK-36492
1 67332U 26002AD  26133.21962563  .00012564  00000+0  46566-3 0  9997
2 67332  43.0012 321.2054 0001789 286.6683  73.3972 15.27556087 21105
STARLINK-36494
1 67331U 26002AC  26133.58626579  .00011299  00000+0  41956-3 0  9992
2 67331  43.0000 318.7878 0001953 257.9680 102.0953 15.27574638 21164
STARLINK-36495
1 67311U 26002G   26133.24261159  .00008846  00000+0  33054-3 0  9996
2 67311  43.0029 320.5191 0002771 269.8530  90.2004 15.27583008 21118
STARLINK-36496
1 67329U 26002AA  26132.92853110  .00015472  00000+0  57025-3 0  9990
2 67329  43.0023 322.4540 0002021 265.1716  94.8904 15.27599702 20883
STARLINK-36497
1 67323U 26002U   26133.58497204  .00015431  00000+0  56903-3 0  9994
2 67323  43.0020 318.7814 0001676 274.2706  85.7954 15.27583929 21060
STARLINK-36498
1 67318U 26002P   26133.59268239  .00009748  00000+0  36323-3 0  9991
2 67318  43.0003 318.8431 0001620 264.1100  95.9567 15.27583602 21067
STARLINK-36500
1 67320U 26002R   26132.82988534  .00012122  00000+0  44916-3 0  9993
2 67320  43.0011 323.4414 0001162 278.4313  81.6407 15.27589567 20944
STARLINK-36501
1 67327U 26002Y   26133.95158824  .00009332  00000+0  34814-3 0  9991
2 67327  43.0036 316.3736 0000969 279.1433  80.9309 15.27584840 21067
